{
  "norad_id": 53012,
  "name": "STARLINK-4271",
  "history": [
    {
      "epoch": "2026-03-28T22:11:39.778944Z",
      "apogee_km": 540.7208475379412,
      "perigee_km": 538.7433054837293,
      "latitude_deg": -2.3828691048957766e-05,
      "longitude_deg": -151.48509017475,
      "height_km": 540.7174038314323,
      "semi_major_axis_km": 6917.869076510835,
      "eccentricity": 0.00014293,
      "inclination_deg": 53.2194,
      "raan_deg": 7.7689,
      "arg_perigee_deg": 95.1929,
      "mean_anomaly_deg": 264.9226,
      "mean_motion_rev_day": 15.08843701
    },
    {
      "epoch": "2026-03-29T04:33:12.006720Z",
      "apogee_km": 540.7015888423339,
      "perigee_km": 538.7383010413596,
      "latitude_deg": -2.040631440061307e-05,
      "longitude_deg": 111.68027715109766,
      "height_km": 540.6950316045713,
      "semi_major_axis_km": 6917.856944941846,
      "eccentricity": 0.0001419,
      "inclination_deg": 53.2192,
      "raan_deg": 6.5797,
      "arg_perigee_deg": 94.6312,
      "mean_anomaly_deg": 265.4842,
      "mean_motion_rev_day": 15.0884767
    },
    {
      "epoch": "2026-03-30T01:13:14.056032Z",
      "apogee_km": 540.7082582606354,
      "perigee_km": 538.8329518670535,
      "latitude_deg": 4.8790981855817576e-05,
      "longitude_deg": 156.96131704716635,
      "height_km": 540.6367091465045,
      "semi_major_axis_km": 6917.907605063844,
      "eccentricity": 0.00013554,
      "inclination_deg": 53.2202,
      "raan_deg": 2.718,
      "arg_perigee_deg": 88.1728,
      "mean_anomaly_deg": 271.942,
      "mean_motion_rev_day": 15.08831096
    },
    {
      "epoch": "2026-03-30T10:45:32.649984Z",
      "apogee_km": 540.6916030586408,
      "perigee_km": 538.8095225683019,
      "latitude_deg": 1.927169315685164e-05,
      "longitude_deg": 11.706188554418008,
      "height_km": 540.5918773580479,
      "semi_major_axis_km": 6917.887562813471,
      "eccentricity": 0.00013603,
      "inclination_deg": 53.2196,
      "raan_deg": 0.9321,
      "arg_perigee_deg": 86.6722,
      "mean_anomaly_deg": 273.4426,
      "mean_motion_rev_day": 15.08837653
    },
    {
      "epoch": "2026-03-30T21:53:14.436960Z",
      "apogee_km": 540.7561987986492,
      "perigee_km": 538.7140429485671,
      "latitude_deg": 5.1864917644589195e-06,
      "longitude_deg": -157.7556557617471,
      "height_km": 540.9497926629575,
      "semi_major_axis_km": 6917.872120873608,
      "eccentricity": 0.0001476,
      "inclination_deg": 53.2201,
      "raan_deg": 358.8514,
      "arg_perigee_deg": 108.1896,
      "mean_anomaly_deg": 251.9257,
      "mean_motion_rev_day": 15.08842705
    },
    {
      "epoch": "2026-03-31T10:36:19.442880Z",
      "apogee_km": 540.6292974103117,
      "perigee_km": 538.8345254999231,
      "latitude_deg": -2.4689232832108953e-05,
      "longitude_deg": 8.57235269903077,
      "height_km": 540.7027228240303,
      "semi_major_axis_km": 6917.868911455117,
      "eccentricity": 0.00012972,
      "inclination_deg": 53.2192,
      "raan_deg": 356.4726,
      "arg_perigee_deg": 94.7824,
      "mean_anomaly_deg": 265.3316,
      "mean_motion_rev_day": 15.08843755
    },
    {
      "epoch": "2026-04-01T10:27:06.790464Z",
      "apogee_km": 540.6383793685227,
      "perigee_km": 538.8618659554231,
      "latitude_deg": -3.441450515153986e-05,
      "longitude_deg": 5.435124831190638,
      "height_km": 540.5516025217019,
      "semi_major_axis_km": 6917.887122661973,
      "eccentricity": 0.0001284,
      "inclination_deg": 53.219,
      "raan_deg": 352.012,
      "arg_perigee_deg": 83.8917,
      "mean_anomaly_deg": 276.2221,
      "mean_motion_rev_day": 15.08837797
    },
    {
      "epoch": "2026-04-02T16:39:26.378784Z",
      "apogee_km": 540.6822535255305,
      "perigee_km": 538.8310251876392,
      "latitude_deg": -1.8023565264100647e-05,
      "longitude_deg": -94.53707319263117,
      "height_km": 540.6003556898637,
      "semi_major_axis_km": 6917.893639356585,
      "eccentricity": 0.0001338,
      "inclination_deg": 53.2196,
      "raan_deg": 346.3619,
      "arg_perigee_deg": 86.7634,
      "mean_anomaly_deg": 273.3511,
      "mean_motion_rev_day": 15.08835665
    },
    {
      "epoch": "2026-04-02T23:00:58.178880Z",
      "apogee_km": 540.6263481053838,
      "perigee_km": 538.7886918870918,
      "latitude_deg": 2.3693593285222547e-05,
      "longitude_deg": 168.63120960118397,
      "height_km": 540.4698218583895,
      "semi_major_axis_km": 6917.844519996238,
      "eccentricity": 0.00013282,
      "inclination_deg": 53.2191,
      "raan_deg": 345.1738,
      "arg_perigee_deg": 81.6361,
      "mean_anomaly_deg": 278.4782,
      "mean_motion_rev_day": 15.08851735
    },
    {
      "epoch": "2026-04-03T21:16:23.684736Z",
      "apogee_km": 540.4988268429288,
      "perigee_km": 539.0626671186556,
      "latitude_deg": -2.136115942268577e-05,
      "longitude_deg": -170.3022643336387,
      "height_km": 540.438448660058,
      "semi_major_axis_km": 6917.917746980792,
      "eccentricity": 0.0001038,
      "inclination_deg": 53.2185,
      "raan_deg": 341.0107,
      "arg_perigee_deg": 70.5895,
      "mean_anomaly_deg": 289.5209,
      "mean_motion_rev_day": 15.08827778
    },
    {
      "epoch": "2026-04-04T02:02:32.582976Z",
      "apogee_km": 540.6396335294603,
      "perigee_km": 538.866578295314,
      "latitude_deg": 5.332818480405747e-06,
      "longitude_deg": 117.06921786922027,
      "height_km": 540.6759868892433,
      "semi_major_axis_km": 6917.890105912386,
      "eccentricity": 0.00012815,
      "inclination_deg": 53.2186,
      "raan_deg": 340.1151,
      "arg_perigee_deg": 91.7414,
      "mean_anomaly_deg": 268.3725,
      "mean_motion_rev_day": 15.08836821
    },
    {
      "epoch": "2026-04-05T09:50:14.442432Z",
      "apogee_km": 540.5917609056223,
      "perigee_km": 538.847077516697,
      "latitude_deg": 3.0327251024101807e-05,
      "longitude_deg": -7.107752198694779,
      "height_km": 540.6293266406798,
      "semi_major_axis_km": 6917.85641921116,
      "eccentricity": 0.0001261,
      "inclination_deg": 53.2177,
      "raan_deg": 334.1683,
      "arg_perigee_deg": 90.9218,
      "mean_anomaly_deg": 269.1919,
      "mean_motion_rev_day": 15.08847842
    },
    {
      "epoch": "2026-04-05T20:57:57.094272Z",
      "apogee_km": 540.7711787215649,
      "perigee_km": 538.7331685710078,
      "latitude_deg": -1.826068629012392e-05,
      "longitude_deg": -176.57553700121392,
      "height_km": 540.8618154626747,
      "semi_major_axis_km": 6917.889173646286,
      "eccentricity": 0.0001473,
      "inclination_deg": 53.2182,
      "raan_deg": 332.0853,
      "arg_perigee_deg": 102.1208,
      "mean_anomaly_deg": 257.9949,
      "mean_motion_rev_day": 15.08837126
    },
    {
      "epoch": "2026-04-05T22:33:20.340000Z",
      "apogee_km": 540.7237143476696,
      "perigee_km": 538.7886412679736,
      "latitude_deg": 2.7925709004211326e-05,
      "longitude_deg": 159.21814964484108,
      "height_km": 540.5107433671586,
      "semi_major_axis_km": 6917.893177807821,
      "eccentricity": 0.00013986,
      "inclination_deg": 53.218,
      "raan_deg": 331.7911,
      "arg_perigee_deg": 81.6103,
      "mean_anomaly_deg": 278.5048,
      "mean_motion_rev_day": 15.08835816
    },
    {
      "epoch": "2026-04-07T07:56:25.910880Z",
      "apogee_km": 540.6529994310213,
      "perigee_km": 538.8210080373528,
      "latitude_deg": 4.860762694657401e-05,
      "longitude_deg": 10.82928112787361,
      "height_km": 540.507145083639,
      "semi_major_axis_km": 6917.874003734187,
      "eccentricity": 0.00013241,
      "inclination_deg": 53.2174,
      "raan_deg": 325.5465,
      "arg_perigee_deg": 82.1171,
      "mean_anomaly_deg": 277.9972,
      "mean_motion_rev_day": 15.08842089
    },
    {
      "epoch": "2026-04-07T20:39:31.289184Z",
      "apogee_km": 540.6744446618814,
      "perigee_km": 538.8279219479937,
      "latitude_deg": -2.1623790796070943e-05,
      "longitude_deg": 177.1556014578036,
      "height_km": 540.554226115968,
      "semi_major_axis_km": 6917.888183304937,
      "eccentricity": 0.00013346,
      "inclination_deg": 53.2175,
      "raan_deg": 323.1676,
      "arg_perigee_deg": 84.2361,
      "mean_anomaly_deg": 275.8783,
      "mean_motion_rev_day": 15.0883745
    },
    {
      "epoch": "2026-04-09T18:45:42.621120Z",
      "apogee_km": 540.6914387155712,
      "perigee_km": 538.7904058625263,
      "latitude_deg": 5.608146263402045e-05,
      "longitude_deg": -164.90915193862122,
      "height_km": 540.5802082699911,
      "semi_major_axis_km": 6917.877922289048,
      "eccentricity": 0.0001374,
      "inclination_deg": 53.2187,
      "raan_deg": 314.5434,
      "arg_perigee_deg": 86.5901,
      "mean_anomaly_deg": 273.5249,
      "mean_motion_rev_day": 15.08840807
    },
    {
      "epoch": "2026-04-09T23:31:51.899520Z",
      "apogee_km": 540.6847839622078,
      "perigee_km": 538.7953733744826,
      "latitude_deg": -4.737374417991692e-05,
      "longitude_deg": 122.46284467418036,
      "height_km": 540.6596171292027,
      "semi_major_axis_km": 6917.877078668344,
      "eccentricity": 0.00013656,
      "inclination_deg": 53.2184,
      "raan_deg": 313.65,
      "arg_perigee_deg": 91.4391,
      "mean_anomaly_deg": 268.6757,
      "mean_motion_rev_day": 15.08841083
    },
    {
      "epoch": "2026-04-11T20:02:39.535584Z",
      "apogee_km": 540.7001306033944,
      "perigee_km": 538.7603606277235,
      "latitude_deg": 1.7399288072937314e-05,
      "longitude_deg": 164.61121200112487,
      "height_km": 540.6371650652288,
      "semi_major_axis_km": 6917.867245615559,
      "eccentricity": 0.0001402,
      "inclination_deg": 53.2175,
      "raan_deg": 305.3249,
      "arg_perigee_deg": 90.6653,
      "mean_anomaly_deg": 269.45,
      "mean_motion_rev_day": 15.088443
    }
  ]
}